TYVAK-182A              
1 48271U 21034D   26068.71131789  .00007163  00000+0  50673-3 0  9991
2 48271  97.5843 129.3711 0004862 316.5650  43.5193 15.05150420264864
STARLINK-5670           
1 55341U 23013L   26068.07000350 -.00001040  00000+0 -61967-4 0  9993
2 55341  43.0030 303.9234 0001054 272.6238  87.4484 15.02534119171616
